IRIDIUM 171             
1 43929U 19002H   25045.89799740  .00000066  00000+0  16387-4 0  9998
2 43929  86.4013 197.4424 0002121  82.6280 277.5157 14.34217628319111
IRIDIUM 170             
1 43930U 19002J   25045.90468501  .00000489  00000+0  73707-4 0  9998
2 43930  86.6133 197.2164 0002434  99.7104 260.4388 14.72253426327561
IRIDIUM 167             
1 43931U 19002K   25045.96142049  .00000583  00000+0  20107-3 0  9991
2 43931  86.4003 197.1818 0002343  86.8712 273.2752 14.34217544319121
IRIDIUM 181             
1 56726U 23068S   25045.85954033  .00000543  00000+0  15525-3 0  9990
2 56726  86.4459 260.3381 0002308  77.1815 282.9643 14.43313525 92140
IRIDIUM 177             
1 56727U 23068T   25045.91501044  .00003148  00000+0  41089-3 0  9996
2 56727  86.1996 200.1093 0002438 100.8765 259.2730 14.80224180 94288
IRIDIUM 174             
1 56728U 23068U   25045.90956810  .00003173  00000+0  41414-3 0  9991
2 56728  86.1999 200.2345 0002118  80.8108 279.3353 14.80225850 94285
IRIDIUM 178             
1 56729U 23068V   25045.90415039  .00001010  00000+0  12947-3 0  9992
2 56729  86.5753 229.1706 0002031  68.6702 291.4736 14.80230483 94285
IRIDIUM 179             
1 56730U 23068W   25045.49310433  .00002066  00000+0  26862-3 0  9993
2 56730  86.6733 236.5271 0002322  86.7043 273.4444 14.80212761 94226
